CCSDS_OMM_VERS = 2.0
CREATION_DATE  = 
ORIGINATOR     = 

OBJECT_NAME    = HULIANWANG DIGUI-105
OBJECT_ID      = 2025-285A
CENTER_NAME    = EARTH
REF_FRAME      = TEME
TIME_SYSTEM    = UTC
MEAN_ELEMENT_THEORY = SGP/SGP4

EPOCH          = 2025-12-15T08:04:55.176672
MEAN_MOTION    = 14.03716069
ECCENTRICITY   = .00079534
INCLINATION    = 50.0042
RA_OF_ASC_NODE = 106.6968
ARG_OF_PERICENTER = 291.3825
MEAN_ANOMALY   = 68.6230

EPHEMERIS_TYPE = 0
CLASSIFICATION_TYPE = U
NORAD_CAT_ID   = 66915
ELEMENT_SET_NO = 999
REV_AT_EPOCH   = 127
BSTAR          = .23770741E-3
MEAN_MOTION_DOT = .225E-5
MEAN_MOTION_DDOT = 0

CCSDS_OMM_VERS = 2.0
CREATION_DATE  = 
ORIGINATOR     = 

OBJECT_NAME    = HULIANWANG DIGUI-106
OBJECT_ID      = 2025-285B
CENTER_NAME    = EARTH
REF_FRAME      = TEME
TIME_SYSTEM    = UTC
MEAN_ELEMENT_THEORY = SGP/SGP4

EPOCH          = 2025-12-15T08:00:44.472384
MEAN_MOTION    = 14.04044179
ECCENTRICITY   = .00067071
INCLINATION    = 50.0054
RA_OF_ASC_NODE = 106.6825
ARG_OF_PERICENTER = 285.3091
MEAN_ANOMALY   = 74.7072

EPHEMERIS_TYPE = 0
CLASSIFICATION_TYPE = U
NORAD_CAT_ID   = 66916
ELEMENT_SET_NO = 999
REV_AT_EPOCH   = 127
BSTAR          = .12214937E-4
MEAN_MOTION_DOT = -.132E-5
MEAN_MOTION_DDOT = 0

CCSDS_OMM_VERS = 2.0
CREATION_DATE  = 
ORIGINATOR     = 

OBJECT_NAME    = HULIANWANG DIGUI-107
OBJECT_ID      = 2025-285C
CENTER_NAME    = EARTH
REF_FRAME      = TEME
TIME_SYSTEM    = UTC
MEAN_ELEMENT_THEORY = SGP/SGP4

EPOCH          = 2025-12-15T07:58:25.154976
MEAN_MOTION    = 14.05118183
ECCENTRICITY   = .00074248
INCLINATION    = 50.0019
RA_OF_ASC_NODE = 106.6690
ARG_OF_PERICENTER = 292.9622
MEAN_ANOMALY   = 67.0499

EPHEMERIS_TYPE = 0
CLASSIFICATION_TYPE = U
NORAD_CAT_ID   = 66917
ELEMENT_SET_NO = 999
REV_AT_EPOCH   = 127
BSTAR          = .1441143E-3
MEAN_MOTION_DOT = .82E-6
MEAN_MOTION_DDOT = 0

CCSDS_OMM_VERS = 2.0
CREATION_DATE  = 
ORIGINATOR     = 

OBJECT_NAME    = HULIANWANG DIGUI-108
OBJECT_ID      = 2025-285D
CENTER_NAME    = EARTH
REF_FRAME      = TEME
TIME_SYSTEM    = UTC
MEAN_ELEMENT_THEORY = SGP/SGP4

EPOCH          = 2025-12-15T07:57:13.398912
MEAN_MOTION    = 14.05310424
ECCENTRICITY   = .00063604
INCLINATION    = 50.0040
RA_OF_ASC_NODE = 106.6678
ARG_OF_PERICENTER = 289.8888
MEAN_ANOMALY   = 70.1332

EPHEMERIS_TYPE = 0
CLASSIFICATION_TYPE = U
NORAD_CAT_ID   = 66918
ELEMENT_SET_NO = 999
REV_AT_EPOCH   = 127
BSTAR          = .11526412E-3
MEAN_MOTION_DOT = .36E-6
MEAN_MOTION_DDOT = 0

CCSDS_OMM_VERS = 2.0
CREATION_DATE  = 
ORIGINATOR     = 

OBJECT_NAME    = HULIANWANG DIGUI-109
OBJECT_ID      = 2025-285E
CENTER_NAME    = EARTH
REF_FRAME      = TEME
TIME_SYSTEM    = UTC
MEAN_ELEMENT_THEORY = SGP/SGP4

EPOCH          = 2025-12-15T07:56:39.852384
MEAN_MOTION    = 14.05717997
ECCENTRICITY   = .00079
INCLINATION    = 50.0065
RA_OF_ASC_NODE = 106.6694
ARG_OF_PERICENTER = 300.4069
MEAN_ANOMALY   = 59.6056

EPHEMERIS_TYPE = 0
CLASSIFICATION_TYPE = U
NORAD_CAT_ID   = 66919
ELEMENT_SET_NO = 999
REV_AT_EPOCH   = 127
BSTAR          = .12190053E-3
MEAN_MOTION_DOT = .48E-6
MEAN_MOTION_DDOT = 0

CCSDS_OMM_VERS = 2.0
CREATION_DATE  = 
ORIGINATOR     = 

OBJECT_NAME    = HULIANWANG DIGUI-110
OBJECT_ID      = 2025-285F
CENTER_NAME    = EARTH
REF_FRAME      = TEME
TIME_SYSTEM    = UTC
MEAN_ELEMENT_THEORY = SGP/SGP4

EPOCH          = 2025-12-15T07:55:28.752960
MEAN_MOTION    = 14.05572078
ECCENTRICITY   = .00105653
INCLINATION    = 50.0379
RA_OF_ASC_NODE = 106.6887
ARG_OF_PERICENTER = 294.2923
MEAN_ANOMALY   = 65.6878

EPHEMERIS_TYPE = 0
CLASSIFICATION_TYPE = U
NORAD_CAT_ID   = 66920
ELEMENT_SET_NO = 999
REV_AT_EPOCH   = 127
BSTAR          = .11054338E-3
MEAN_MOTION_DOT = .29E-6
MEAN_MOTION_DDOT = 0

CCSDS_OMM_VERS = 2.0
CREATION_DATE  = 
ORIGINATOR     = 

OBJECT_NAME    = HULIANWANG DIGUI-111
OBJECT_ID      = 2025-285G
CENTER_NAME    = EARTH
REF_FRAME      = TEME
TIME_SYSTEM    = UTC
MEAN_ELEMENT_THEORY = SGP/SGP4

EPOCH          = 2025-12-15T06:12:46.869984
MEAN_MOTION    = 14.05885818
ECCENTRICITY   = .00070072
INCLINATION    = 50.0114
RA_OF_ASC_NODE = 106.9613
ARG_OF_PERICENTER = 303.4362
MEAN_ANOMALY   = 56.5872

EPHEMERIS_TYPE = 0
CLASSIFICATION_TYPE = U
NORAD_CAT_ID   = 66921
ELEMENT_SET_NO = 999
REV_AT_EPOCH   = 126
BSTAR          = .11266482E-3
MEAN_MOTION_DOT = .33E-6
MEAN_MOTION_DDOT = 0

CCSDS_OMM_VERS = 2.0
CREATION_DATE  = 
ORIGINATOR     = 

OBJECT_NAME    = HULIANWANG DIGUI-112
OBJECT_ID      = 2025-285H
CENTER_NAME    = EARTH
REF_FRAME      = TEME
TIME_SYSTEM    = UTC
MEAN_ELEMENT_THEORY = SGP/SGP4

EPOCH          = 2025-12-15T09:36:28.476576
MEAN_MOTION    = 14.05775583
ECCENTRICITY   = .00071174
INCLINATION    = 50.0106
RA_OF_ASC_NODE = 106.3732
ARG_OF_PERICENTER = 310.9943
MEAN_ANOMALY   = 49.0346

EPHEMERIS_TYPE = 0
CLASSIFICATION_TYPE = U
NORAD_CAT_ID   = 66922
ELEMENT_SET_NO = 999
REV_AT_EPOCH   = 128
BSTAR          = .1185304E-3
MEAN_MOTION_DOT = .42E-6
MEAN_MOTION_DDOT = 0

CCSDS_OMM_VERS = 2.0
CREATION_DATE  = 
ORIGINATOR     = 

OBJECT_NAME    = HULIANWANG DIGUI-113
OBJECT_ID      = 2025-285J
CENTER_NAME    = EARTH
REF_FRAME      = TEME
TIME_SYSTEM    = UTC
MEAN_ELEMENT_THEORY = SGP/SGP4

EPOCH          = 2025-12-15T09:35:54.224160
MEAN_MOTION    = 14.06057410
ECCENTRICITY   = .00054258
INCLINATION    = 50.0087
RA_OF_ASC_NODE = 106.3706
ARG_OF_PERICENTER = 305.0563
MEAN_ANOMALY   = 54.9833

EPHEMERIS_TYPE = 0
CLASSIFICATION_TYPE = U
NORAD_CAT_ID   = 66923
ELEMENT_SET_NO = 999
REV_AT_EPOCH   = 128
BSTAR          = .1060274E-3
MEAN_MOTION_DOT = .23E-6
MEAN_MOTION_DDOT = 0

CCSDS_OMM_VERS = 2.0
CREATION_DATE  = 
ORIGINATOR     = 

OBJECT_NAME    = CZ-8A R/B
OBJECT_ID      = 2025-285K
CENTER_NAME    = EARTH
REF_FRAME      = TEME
TIME_SYSTEM    = UTC
MEAN_ELEMENT_THEORY = SGP/SGP4

EPOCH          = 2025-12-15T07:34:48.809280
MEAN_MOTION    = 14.30502913
ECCENTRICITY   = .01193144
INCLINATION    = 50.0070
RA_OF_ASC_NODE = 105.1887
ARG_OF_PERICENTER = 115.8206
MEAN_ANOMALY   = 245.5074

EPHEMERIS_TYPE = 0
CLASSIFICATION_TYPE = U
NORAD_CAT_ID   = 66924
ELEMENT_SET_NO = 999
REV_AT_EPOCH   = 129
BSTAR          = .57990449E-4
MEAN_MOTION_DOT = -.3E-7
MEAN_MOTION_DDOT = 0

CCSDS_OMM_VERS = 2.0
CREATION_DATE  = 
ORIGINATOR     = 

OBJECT_NAME    = STARLINK-35945
OBJECT_ID      = 2025-286A
CENTER_NAME    = EARTH
REF_FRAME      = TEME
TIME_SYSTEM    = UTC
MEAN_ELEMENT_THEORY = SGP/SGP4

EPOCH          = 2025-12-15T06:00:04.999968
MEAN_MOTION    = 15.91464790
ECCENTRICITY   = .00008238
INCLINATION    = 53.1573
RA_OF_ASC_NODE = 37.9393
ARG_OF_PERICENTER = 83.8207
MEAN_ANOMALY   = 42.3080

EPHEMERIS_TYPE = 0
CLASSIFICATION_TYPE = U
NORAD_CAT_ID   = 66925
ELEMENT_SET_NO = 999
REV_AT_EPOCH   = 239
BSTAR          = -.39424754E-2
MEAN_MOTION_DOT = -.1300542E-1
MEAN_MOTION_DDOT = .49064985E-3

CCSDS_OMM_VERS = 2.0
CREATION_DATE  = 
ORIGINATOR     = 

OBJECT_NAME    = STARLINK-35942
OBJECT_ID      = 2025-286B
CENTER_NAME    = EARTH
REF_FRAME      = TEME
TIME_SYSTEM    = UTC
MEAN_ELEMENT_THEORY = SGP/SGP4

EPOCH          = 2025-12-15T06:00:04.999968
MEAN_MOTION    = 15.91607475
ECCENTRICITY   = .00007961
INCLINATION    = 53.1571
RA_OF_ASC_NODE = 37.9310
ARG_OF_PERICENTER = 91.6678
MEAN_ANOMALY   = 38.3525

EPHEMERIS_TYPE = 0
CLASSIFICATION_TYPE = U
NORAD_CAT_ID   = 66926
ELEMENT_SET_NO = 999
REV_AT_EPOCH   = 239
BSTAR          = -.40796196E-2
MEAN_MOTION_DOT = -.1355073E-1
MEAN_MOTION_DDOT = .52951419E-3

CCSDS_OMM_VERS = 2.0
CREATION_DATE  = 
ORIGINATOR     = 

OBJECT_NAME    = STARLINK-35943
OBJECT_ID      = 2025-286C
CENTER_NAME    = EARTH
REF_FRAME      = TEME
TIME_SYSTEM    = UTC
MEAN_ELEMENT_THEORY = SGP/SGP4

EPOCH          = 2025-12-15T06:00:04.999968
MEAN_MOTION    = 15.91663770
ECCENTRICITY   = .00008965
INCLINATION    = 53.1572
RA_OF_ASC_NODE = 37.9277
ARG_OF_PERICENTER = 81.9838
MEAN_ANOMALY   = 49.7476

EPHEMERIS_TYPE = 0
CLASSIFICATION_TYPE = U
NORAD_CAT_ID   = 66927
ELEMENT_SET_NO = 999
REV_AT_EPOCH   = 239
BSTAR          = -.41096519E-2
MEAN_MOTION_DOT = -.136887E-1
MEAN_MOTION_DDOT = .53967976E-3

CCSDS_OMM_VERS = 2.0
CREATION_DATE  = 
ORIGINATOR     = 

OBJECT_NAME    = STARLINK-35944
OBJECT_ID      = 2025-286D
CENTER_NAME    = EARTH
REF_FRAME      = TEME
TIME_SYSTEM    = UTC
MEAN_ELEMENT_THEORY = SGP/SGP4

EPOCH          = 2025-12-15T06:00:04.999968
MEAN_MOTION    = 15.91541728
ECCENTRICITY   = .00008843
INCLINATION    = 53.1571
RA_OF_ASC_NODE = 37.9347
ARG_OF_PERICENTER = 80.6831
MEAN_ANOMALY   = 47.5915

EPHEMERIS_TYPE = 0
CLASSIFICATION_TYPE = U
NORAD_CAT_ID   = 66928
ELEMENT_SET_NO = 999
REV_AT_EPOCH   = 239
BSTAR          = -.40236156E-2
MEAN_MOTION_DOT = -.1332219E-1
MEAN_MOTION_DDOT = .51302236E-3

CCSDS_OMM_VERS = 2.0
CREATION_DATE  = 
ORIGINATOR     = 

OBJECT_NAME    = STARLINK-36169
OBJECT_ID      = 2025-286E
CENTER_NAME    = EARTH
REF_FRAME      = TEME
TIME_SYSTEM    = UTC
MEAN_ELEMENT_THEORY = SGP/SGP4

EPOCH          = 2025-12-15T06:00:04.999968
MEAN_MOTION    = 15.91730241
ECCENTRICITY   = .00009757
INCLINATION    = 53.1570
RA_OF_ASC_NODE = 37.9237
ARG_OF_PERICENTER = 82.9905
MEAN_ANOMALY   = 50.6156

EPHEMERIS_TYPE = 0
CLASSIFICATION_TYPE = U
NORAD_CAT_ID   = 66929
ELEMENT_SET_NO = 999
REV_AT_EPOCH   = 239
BSTAR          = -.41652037E-2
MEAN_MOTION_DOT = -.1391879E-1
MEAN_MOTION_DDOT = .5567006E-3

